{"type": "FeatureCollection", "features": [ {"type": "Feature", "properties": {"norad_id": 66663, "name": "KSLV-II R/B", "group": "last-30-days", "lat": 52.20246578273392, "lon": -103.86600114298312, "alt_km": 558.3600536143567, "timestamp": "2025-12-04T19:33:58.450229+00:00", "meta": {"OBJECT_NAME": "KSLV-II R/B", "OBJECT_ID": "2025-274P", "EPOCH": "2025-12-03T17:40:07.524480", "MEAN_MOTION": 14.9720213, "ECCENTRICITY": 0.00461454, "INCLINATION": 97.7399, "RA_OF_ASC_NODE": 265.1649, "ARG_OF_PERICENTER": 348.9678, "MEAN_ANOMALY": 11.0527, "EPHEMERIS_TYPE": 0, "CLASSIFICATION_TYPE": "U", "NORAD_CAT_ID": 66663, "ELEMENT_SET_NO": 999, "REV_AT_EPOCH": 106, "BSTAR": -0.00011329547, "MEAN_MOTION_DOT": -1.401e-05, "MEAN_MOTION_DDOT": 0}, "tle": {"line1": "1 66663U 25274P   25337.73619820 -.00001401  00000+0 -11330-3 0  9991", "line2": "2 66663  97.7399 265.1649 0046145 348.9678  11.0527 14.97202130  1063"}}, "geometry": {"type": "Point", "coordinates": [-103.86600114298312, 52.20246578273392]}}, {"type": "Feature", "properties": {"norad_id": 66664, "name": "SOYUZ-MS 28", "group": "last-30-days", "lat": 49.88624342922045, "lon": -108.16582380585196, "alt_km": 413.31051466064946, "timestamp": "2025-12-04T19:33:58.450238+00:00", "meta": {"OBJECT_NAME": "SOYUZ-MS 28", "OBJECT_ID": "2025-275A", "EPOCH": "2025-12-04T02:12:18.455328", "MEAN_MOTION": 15.49293095, "ECCENTRICITY": 0.00036281, "INCLINATION": 51.6302, "RA_OF_ASC_NODE": 185.2932, "ARG_OF_PERICENTER": 200.9086, "MEAN_ANOMALY": 159.1754, "EPHEMERIS_TYPE": 0, "CLASSIFICATION_TYPE": "U", "NORAD_CAT_ID": 66664, "ELEMENT_SET_NO": 999, "REV_AT_EPOCH": 110, "BSTAR": 0.00029177423, "MEAN_MOTION_DOT": 0.00015824, "MEAN_MOTION_DDOT": 0}, "tle": {"line1": "1 66664U 25275A   25338.09188027  .00015824  00000+0  29177-3 0  9993", "line2": "2 66664  51.6302 185.2932 0003628 200.9086 159.1754 15.49293095  1102"}}, "geometry": {"type": "Point", "coordinates": [-108.16582380585196, 49.88624342922045]}}, {"type": "Feature", "properties": {"norad_id": 66820, "name": "KOMPSAT-7", "group": "last-30-days", "lat": 75.61329859459806, "lon": 136.40510747388083, "alt_km": 570.365591087947, "timestamp": "2025-12-04T19:33:58.450249+00:00", "meta": {"OBJECT_NAME": "KOMPSAT-7", "OBJECT_ID": "2025-279A", "EPOCH": "2025-12-01T20:35:16.060992", "MEAN_MOTION": 14.98310631, "ECCENTRICITY": 0.00097501, "INCLINATION": 97.6394, "RA_OF_ASC_NODE": 281.9587, "ARG_OF_PERICENTER": 255.3935, "MEAN_ANOMALY": 104.6207, "EPHEMERIS_TYPE": 0, "CLASSIFICATION_TYPE": "U", "NORAD_CAT_ID": 66820, "ELEMENT_SET_NO": 999, "REV_AT_EPOCH": 2, "BSTAR": 8.4407298e-05, "MEAN_MOTION_DOT": 9.47e-06, "MEAN_MOTION_DDOT": 0}, "tle": {"line1": "1 66820U 25279A   25335.85782478  .00000947  00000+0  84407-4 0  9990", "line2": "2 66820  97.6394 281.9587 0009750 255.3935 104.6207 14.98310631    23"}}, "geometry": {"type": "Point", "coordinates": [136.40510747388083, 75.61329859459806]}}, {"type": "Feature", "properties": {"norad_id": 66877, "name": "DUMMY PAYLOAD", "group": "last-30-days", "lat": 7.2170116098165655, "lon": 92.29553442269192, "alt_km": 1344.1641718913988, "timestamp": "2025-12-04T19:33:58.450259+00:00", "meta": {"OBJECT_NAME": "DUMMY PAYLOAD", "OBJECT_ID": "2025-282A", "EPOCH": "2025-12-04T12:51:00.172224", "MEAN_MOTION": 14.38661655, "ECCENTRICITY": 0.086573, "INCLINATION": 56.9568, "RA_OF_ASC_NODE": 88.607, "ARG_OF_PERICENTER": 205.995, "MEAN_ANOMALY": 149.505, "EPHEMERIS_TYPE": 0, "CLASSIFICATION_TYPE": "U", "NORAD_CAT_ID": 66877, "ELEMENT_SET_NO": 999, "REV_AT_EPOCH": 20, "BSTAR": 0.00015494, "MEAN_MOTION_DOT": 0.00680256, "MEAN_MOTION_DDOT": 7.1965e-06}, "tle": {"line1": "1 66877U 25282A   25338.53541866  .00680256  71965-5  15494-3 0  9998", "line2": "2 66877  56.9568  88.6070 0865730 205.9950 149.5050 14.38661655   204"}}, "geometry": {"type": "Point", "coordinates": [92.29553442269192, 7.2170116098165655]}}]}